IRIDIUM 63              
1 25286U 98021B   26013.94269303  .00000320  00000+0  10183-3 0  9991
2 25286  86.3996 353.6988 0002046  83.1206 277.0224 14.36766886454103
IRIDIUM 69              
1 25319U 98026A   26013.93007703  .00000289  00000+0  83406-4 0  9999
2 25319  86.3978   6.3256 0004339  67.4009 292.7649 14.41248741453412
IRIDIUM 71              
1 25320U 98026B   26013.70643193  .00000253  00000+0  71899-4 0  9999
2 25320  86.3981   1.0910 0004207 100.6240 259.5434 14.41341519453913
IRIDIUM 73              
1 25344U 98032C   26013.75498825  .00000484  00000+0  11456-3 0  9995
2 25344  86.4433 317.3853 0002450  69.7802 290.3667 14.52042166461118
IRIDIUM 82              
1 25467U 98051A   26013.70867808  .00032239  00000+0  54149-3 0  9997
2 25467  86.3596   4.9710 0056173 204.4714 155.3878 15.49794774456344
